MANDRAKE 2 BAKER        
1 48908U 21059AF  26063.46887939  .00040039  00000+0  61806-3 0  9996
2 48908  97.7016 247.8249 0004034  21.1269 339.0149 15.54024486261006
PACE-1                  
1 48909U 21059AG  26063.78889375  .00070325  00000+0  68944-3 0  9999
2 48909  97.6839 251.3278 0002779 334.6843  25.4279 15.65866461261396
YAM-3                   
1 48915U 21059AN  26063.82134776  .00018565  00000+0  38232-3 0  9994
2 48915  97.6969 244.1494 0005495  24.1103 336.0402 15.45972372260851
FARADAY_PHOENIX         
1 48924U 21059AX  26063.49951622  .00091246  00000+0  11348-2 0  9999
2 48924  97.6907 251.5442 0006319 348.3324  11.7784 15.59639506261259
DEMO8 (TENZING)         
1 48951U 21059CA  26063.46868691  .00032851  00000+0  57137-3 0  9993
2 48951  97.7037 249.2220 0007353  15.6925 344.4553 15.50706858261056
NAPA-2                  
1 48963U 21059CN  26063.81785397  .00103553  00000+0  85641-3 0  9995
2 48963  97.6844 250.8264 0003646 334.3011  25.8068 15.69950521261316
JILIN-1 GAOFEN 3D03     
1 49006U 21061D   26063.86675791  .00222156  00000+0  12858-2 0  9998
2 49006  97.3033 140.5888 0002940 144.5681 215.5781 15.77964942259788
XINGSHIDAI 10           
1 49007U 21061E   26062.73786584  .00194955  00000+0  12676-2 0  9990
2 49007  97.3036 139.0902 0002344 135.6876 224.4577 15.75382982259583
FENGYUN 3E              
1 49008U 21062A   26063.83979921  .00000166  00000+0  98773-4 0  9997
2 49008  98.7506  68.4071 0002412  51.7996 308.3397 14.19893668241779
ISS (NAUKA)             
1 49044U 21066A   26063.86671769  .00009014  00000+0  17477-3 0  9995
2 49044  51.6315  96.2009 0008177 157.5272 202.6076 15.48447334555407
STARLINK-3100           
1 49144U 21082Q   26063.62769276  .00001775  00000+0  15649-3 0  9994
2 49144  69.9984 307.2103 0003005 273.1186  86.9630 14.98328542245224
CUTE                    
1 49263U 21088D   26063.24952524  .00057362  00000+0  55812-3 0  9999
2 49263  97.4237 155.1502 0003152 335.8214  24.2897 15.66103772246028
2021-091B               
1 49316U 21091B   26063.86196626  .00008426  00000+0  41716-3 0  9998
2 49316  97.4469 253.0505 0014580  48.0258 312.2215 15.17942333243158
SDGSAT 1                
1 49387U 21100A   26063.86335503  .00003676  00000+0  17708-3 0  9992
2 49387  97.2784 114.6429 0006612 305.8070  54.2550 15.19321588240072
TEIKYOSAT-4 (OORURI)    
1 49396U 21102B   26063.56974909  .00003592  00000+0  23029-3 0  9990
2 49396  97.3799  97.0811 0010660 296.6030  63.4107 15.09089278236946
Z-SAT                   
1 49399U 21102E   26063.83872539  .00006142  00000+0  31000-3 0  9991
2 49399  97.3465 102.3189 0015326 249.5541 110.4048 15.17364889237610
HIBARI                  
1 49400U 21102F   26063.07895511  .00017347  00000+0  60937-3 0  9995
2 49400  97.3389 110.2725 0011557 206.8706 153.1938 15.29389665238113
