[{"OBJECT_NAME":"MANDRAKE 2 BAKER","OBJECT_ID":"2021-059AF","EPOCH":"2026-03-04T11:15:11.179296","MEAN_MOTION":15.54024486,"ECCENTRICITY":0.00040346,"INCLINATION":97.7016,"RA_OF_ASC_NODE":247.8249,"ARG_OF_PERICENTER":21.1269,"MEAN_ANOMALY":339.0149,"EPHEMERIS_TYPE":0,"CLASSIFICATION_TYPE":"U","NORAD_CAT_ID":48908,"ELEMENT_SET_NO":999,"REV_AT_EPOCH":26100,"BSTAR":0.00061805845,"MEAN_MOTION_DOT":0.00040039,"MEAN_MOTION_DDOT":0},{"OBJECT_NAME":"PACE-1","OBJECT_ID":"2021-059AG","EPOCH":"2026-03-04T18:56:00.420000","MEAN_MOTION":15.65866461,"ECCENTRICITY":0.0002779,"INCLINATION":97.6839,"RA_OF_ASC_NODE":251.3278,"ARG_OF_PERICENTER":334.6843,"MEAN_ANOMALY":25.4279,"EPHEMERIS_TYPE":0,"CLASSIFICATION_TYPE":"U","NORAD_CAT_ID":48909,"ELEMENT_SET_NO":999,"REV_AT_EPOCH":26139,"BSTAR":0.00068944,"MEAN_MOTION_DOT":0.00070325,"MEAN_MOTION_DDOT":0},{"OBJECT_NAME":"YAM-3","OBJECT_ID":"2021-059AN","EPOCH":"2026-03-04T19:42:44.446464","MEAN_MOTION":15.45972372,"ECCENTRICITY":0.0005495,"INCLINATION":97.6969,"RA_OF_ASC_NODE":244.1494,"ARG_OF_PERICENTER":24.1103,"MEAN_ANOMALY":336.0402,"EPHEMERIS_TYPE":0,"CLASSIFICATION_TYPE":"U","NORAD_CAT_ID":48915,"ELEMENT_SET_NO":999,"REV_AT_EPOCH":26085,"BSTAR":0.00038232,"MEAN_MOTION_DOT":0.00018565,"MEAN_MOTION_DDOT":0},{"OBJECT_NAME":"FARADAY_PHOENIX","OBJECT_ID":"2021-059AX","EPOCH":"2026-03-04T11:59:18.201408","MEAN_MOTION":15.59639506,"ECCENTRICITY":0.00063194,"INCLINATION":97.6907,"RA_OF_ASC_NODE":251.5442,"ARG_OF_PERICENTER":348.3324,"MEAN_ANOMALY":11.7784,"EPHEMERIS_TYPE":0,"CLASSIFICATION_TYPE":"U","NORAD_CAT_ID":48924,"ELEMENT_SET_NO":999,"REV_AT_EPOCH":26125,"BSTAR":0.0011347731,"MEAN_MOTION_DOT":0.00091246,"MEAN_MOTION_DDOT":0},{"OBJECT_NAME":"DEMO8 (TENZING)","OBJECT_ID":"2021-059CA","EPOCH":"2026-03-04T11:14:54.549024","MEAN_MOTION":15.50706858,"ECCENTRICITY":0.00073531,"INCLINATION":97.7037,"RA_OF_ASC_NODE":249.222,"ARG_OF_PERICENTER":15.6925,"MEAN_ANOMALY":344.4553,"EPHEMERIS_TYPE":0,"CLASSIFICATION_TYPE":"U","NORAD_CAT_ID":48951,"ELEMENT_SET_NO":999,"REV_AT_EPOCH":26105,"BSTAR":0.00057137332,"MEAN_MOTION_DOT":0.00032851,"MEAN_MOTION_DDOT":0},{"OBJECT_NAME":"NAPA-2","OBJECT_ID":"2021-059CN","EPOCH":"2026-03-04T19:37:42.583008","MEAN_MOTION":15.69950521,"ECCENTRICITY":0.0003646,"INCLINATION":97.6844,"RA_OF_ASC_NODE":250.8264,"ARG_OF_PERICENTER":334.3011,"MEAN_ANOMALY":25.8068,"EPHEMERIS_TYPE":0,"CLASSIFICATION_TYPE":"U","NORAD_CAT_ID":48963,"ELEMENT_SET_NO":999,"REV_AT_EPOCH":26131,"BSTAR":0.00085641,"MEAN_MOTION_DOT":0.00103553,"MEAN_MOTION_DDOT":0},{"OBJECT_NAME":"JILIN-1 GAOFEN 3D03","OBJECT_ID":"2021-061D","EPOCH":"2026-03-04T20:48:07.883424","MEAN_MOTION":15.77964942,"ECCENTRICITY":0.000294,"INCLINATION":97.3033,"RA_OF_ASC_NODE":140.5888,"ARG_OF_PERICENTER":144.5681,"MEAN_ANOMALY":215.5781,"EPHEMERIS_TYPE":0,"CLASSIFICATION_TYPE":"U","NORAD_CAT_ID":49006,"ELEMENT_SET_NO":999,"REV_AT_EPOCH":25978,"BSTAR":0.0012858,"MEAN_MOTION_DOT":0.00222156,"MEAN_MOTION_DDOT":0},{"OBJECT_NAME":"XINGSHIDAI 10","OBJECT_ID":"2021-061E","EPOCH":"2026-03-03T17:42:31.608576","MEAN_MOTION":15.75382982,"ECCENTRICITY":0.00023446,"INCLINATION":97.3036,"RA_OF_ASC_NODE":139.0902,"ARG_OF_PERICENTER":135.6876,"MEAN_ANOMALY":224.4577,"EPHEMERIS_TYPE":0,"CLASSIFICATION_TYPE":"U","NORAD_CAT_ID":49007,"ELEMENT_SET_NO":999,"REV_AT_EPOCH":25958,"BSTAR":0.0012676278,"MEAN_MOTION_DOT":0.00194955,"MEAN_MOTION_DDOT":0},{"OBJECT_NAME":"FENGYUN 3E","OBJECT_ID":"2021-062A","EPOCH":"2026-03-04T20:09:18.651744","MEAN_MOTION":14.19893668,"ECCENTRICITY":0.0002412,"INCLINATION":98.7506,"RA_OF_ASC_NODE":68.4071,"ARG_OF_PERICENTER":51.7996,"MEAN_ANOMALY":308.3397,"EPHEMERIS_TYPE":0,"CLASSIFICATION_TYPE":"U","NORAD_CAT_ID":49008,"ELEMENT_SET_NO":999,"REV_AT_EPOCH":24177,"BSTAR":9.8773e-5,"MEAN_MOTION_DOT":1.66e-6,"MEAN_MOTION_DDOT":0},{"OBJECT_NAME":"ISS (NAUKA)","OBJECT_ID":"2021-066A","EPOCH":"2026-03-04T20:48:04.408416","MEAN_MOTION":15.48447334,"ECCENTRICITY":0.0008177,"INCLINATION":51.6315,"RA_OF_ASC_NODE":96.2009,"ARG_OF_PERICENTER":157.5272,"MEAN_ANOMALY":202.6076,"EPHEMERIS_TYPE":0,"CLASSIFICATION_TYPE":"U","NORAD_CAT_ID":49044,"ELEMENT_SET_NO":999,"REV_AT_EPOCH":55540,"BSTAR":0.00017477,"MEAN_MOTION_DOT":9.014e-5,"MEAN_MOTION_DDOT":0},{"OBJECT_NAME":"STARLINK-3100","OBJECT_ID":"2021-082Q","EPOCH":"2026-03-04T15:03:52.654464","MEAN_MOTION":14.98328542,"ECCENTRICITY":0.0003005,"INCLINATION":69.9984,"RA_OF_ASC_NODE":307.2103,"ARG_OF_PERICENTER":273.1186,"MEAN_ANOMALY":86.963,"EPHEMERIS_TYPE":0,"CLASSIFICATION_TYPE":"U","NORAD_CAT_ID":49144,"ELEMENT_SET_NO":999,"REV_AT_EPOCH":24522,"BSTAR":0.00015649,"MEAN_MOTION_DOT":1.775e-5,"MEAN_MOTION_DDOT":0},{"OBJECT_NAME":"CUTE","OBJECT_ID":"2021-088D","EPOCH":"2026-03-04T05:59:18.980736","MEAN_MOTION":15.66103772,"ECCENTRICITY":0.00031522,"INCLINATION":97.4237,"RA_OF_ASC_NODE":155.1502,"ARG_OF_PERICENTER":335.8214,"MEAN_ANOMALY":24.2897,"EPHEMERIS_TYPE":0,"CLASSIFICATION_TYPE":"U","NORAD_CAT_ID":49263,"ELEMENT_SET_NO":999,"REV_AT_EPOCH":24602,"BSTAR":0.00055812204,"MEAN_MOTION_DOT":0.00057362,"MEAN_MOTION_DDOT":0},{"OBJECT_NAME":"2021-091B","OBJECT_ID":"2021-091B","EPOCH":"2026-03-04T20:41:13.884864","MEAN_MOTION":15.17942333,"ECCENTRICITY":0.001458,"INCLINATION":97.4469,"RA_OF_ASC_NODE":253.0505,"ARG_OF_PERICENTER":48.0258,"MEAN_ANOMALY":312.2215,"EPHEMERIS_TYPE":0,"CLASSIFICATION_TYPE":"U","NORAD_CAT_ID":49316,"ELEMENT_SET_NO":999,"REV_AT_EPOCH":24315,"BSTAR":0.00041716,"MEAN_MOTION_DOT":8.426e-5,"MEAN_MOTION_DDOT":0},{"OBJECT_NAME":"SDGSAT 1","OBJECT_ID":"2021-100A","EPOCH":"2026-03-04T20:43:13.874592","MEAN_MOTION":15.19321588,"ECCENTRICITY":0.0006612,"INCLINATION":97.2784,"RA_OF_ASC_NODE":114.6429,"ARG_OF_PERICENTER":305.807,"MEAN_ANOMALY":54.255,"EPHEMERIS_TYPE":0,"CLASSIFICATION_TYPE":"U","NORAD_CAT_ID":49387,"ELEMENT_SET_NO":999,"REV_AT_EPOCH":24007,"BSTAR":0.00017708,"MEAN_MOTION_DOT":3.676e-5,"MEAN_MOTION_DDOT":0},{"OBJECT_NAME":"TEIKYOSAT-4 (OORURI)","OBJECT_ID":"2021-102B","EPOCH":"2026-03-04T13:40:26.321376","MEAN_MOTION":15.09089278,"ECCENTRICITY":0.001066,"INCLINATION":97.3799,"RA_OF_ASC_NODE":97.0811,"ARG_OF_PERICENTER":296.603,"MEAN_ANOMALY":63.4107,"EPHEMERIS_TYPE":0,"CLASSIFICATION_TYPE":"U","NORAD_CAT_ID":49396,"ELEMENT_SET_NO":999,"REV_AT_EPOCH":23694,"BSTAR":0.00023029,"MEAN_MOTION_DOT":3.592e-5,"MEAN_MOTION_DDOT":0},{"OBJECT_NAME":"Z-SAT","OBJECT_ID":"2021-102E","EPOCH":"2026-03-04T20:07:45.873696","MEAN_MOTION":15.17364889,"ECCENTRICITY":0.0015326,"INCLINATION":97.3465,"RA_OF_ASC_NODE":102.3189,"ARG_OF_PERICENTER":249.5541,"MEAN_ANOMALY":110.4048,"EPHEMERIS_TYPE":0,"CLASSIFICATION_TYPE":"U","NORAD_CAT_ID":49399,"ELEMENT_SET_NO":999,"REV_AT_EPOCH":23761,"BSTAR":0.00031,"MEAN_MOTION_DOT":6.142e-5,"MEAN_MOTION_DDOT":0},{"OBJECT_NAME":"HIBARI","OBJECT_ID":"2021-102F","EPOCH":"2026-03-04T01:53:41.721504","MEAN_MOTION":15.29389665,"ECCENTRICITY":0.00115571,"INCLINATION":97.3389,"RA_OF_ASC_NODE":110.2725,"ARG_OF_PERICENTER":206.8706,"MEAN_ANOMALY":153.1938,"EPHEMERIS_TYPE":0,"CLASSIFICATION_TYPE":"U","NORAD_CAT_ID":49400,"ELEMENT_SET_NO":999,"REV_AT_EPOCH":23811,"BSTAR":0.00060936534,"MEAN_MOTION_DOT":0.00017347,"MEAN_MOTION_DDOT":0}]
